POPACS 1                
1 39268U 13055D   22155.55403792  .00009225  00000+0  23790-3 0  9993
2 39268  80.9981 253.3612 0572931 239.4034 114.9466 14.49853756451439
POPACS 2                
1 39269U 13055E   22155.45010623  .00005613  00000+0  15301-3 0  9996
2 39269  81.0115 309.8919 0648060  26.0852 337.1505 14.32786572448323
POPACS 3                
1 39270U 13055F   22155.49809659  .00006421  00000+0  19241-3 0  9992
2 39270  81.0144 342.4653 0690739 118.2844 248.9805 14.21728775426798
ASTRA 2E                
1 39285U 13056A   22155.34771719  .00000160  00000+0  00000+0 0  9991
2 39285   0.0600 343.0457 0002297  84.8710 338.4802  1.00270419 31656
SHIJIAN-16 (SJ-16)      
1 39358U 13057A   22155.51399052  .00000897  00000+0  10504-3 0  9999
2 39358  74.9754 252.4332 0018729 193.2481 166.8200 14.86161166467079
FM-6                    
1 39360U 13058A   22155.53779428 -.00000007  00000+0  00000+0 0  9994
2 39360   0.0265 297.1509 0000496  19.3823  13.8711  1.00272948 31282
RADUGA-1M 3             
1 39375U 13062A   22154.73563125  .00000165  00000+0  00000+0 0  9995
2 39375   2.1980  89.9835 0004304 138.9954 323.0091  1.00273123 31349
STPSAT-3                
1 39380U 13064A   22155.21958072  .00015244  00000+0  33269-3 0  9997
2 39380  40.4970 118.4435 0007218 228.8257 131.1937 15.43800508477251
YAOGAN 19               
1 39410U 13065A   22155.50854271 -.00000029  00000+0  34570-4 0  9993
2 39410 100.0708 183.7907 0008710 244.7967 115.2251 13.15499944409914
APRIZESAT 7             
1 39416U 13066A   22155.47673853  .00000532  00000+0  68402-4 0  9990
2 39416  97.5712 136.2571 0041921  42.5861 317.8592 14.84436517462116
ZACUBE-1 (TSHEPISOSAT)  
1 39417U 13066B   22155.47421669  .00001187  00000+0  15040-3 0  9993
2 39417  97.6357 127.5589 0059587  87.2623 273.5409 14.82292637461209
SKYSAT-A                
1 39418U 13066C   22155.16508739  .00000611  00000+0  53901-4 0  9994
2 39418  97.5578 227.3836 0020607 313.5950  46.3563 14.99850890466668
DUBAISAT-2              
1 39419U 13066D   22155.45622693  .00001820  00000+0  17138-3 0  9997
2 39419  97.4448 188.1039 0012585 329.0786  30.9691 14.94960232465250
OPTOS                   
1 39420U 13066E   22155.49724154  .00001035  00000+0  18441-3 0  9994
2 39420  97.8243  74.3550 0136946  37.9961 323.0806 14.63132384455372
STSAT-3                 
1 39422U 13066G   22155.46317997  .00000743  00000+0  81184-4 0  9996
2 39422  97.4681 161.3125 0021726 329.0104  30.9819 14.90472663463907
WNISAT-1                
1 39423U 13066H   22155.42092346  .00000350  00000+0  78185-4 0  9992
2 39423  97.7552  37.8602 0174194 178.1764 182.0161 14.53472346452564
APRIZESAT 8             
1 39425U 13066K   22155.48420206  .00000434  00000+0  60331-4 0  9997
2 39425  97.6256 127.5573 0053150  83.3454 277.3805 14.81591877461049
TRITON-1                
1 39427U 13066M   22155.52874292  .00000912  00000+0  15028-3 0  9995
2 39427  97.8130  91.8862 0110710 306.5962  52.5098 14.68943333456884
DELFI-N3XT              
1 39428U 13066N   22155.38185882  .00001631  00000+0  25837-3 0  9998
2 39428  97.8144  90.3018 0116558 320.4386  38.8355 14.69139570456613
GOMX-1                  
1 39430U 13066Q   22155.50338745  .00001098  00000+0  20301-3 0  9991
2 39430  97.8113  63.4428 0150782  85.7370 276.1034 14.60151406454408
FIRST-MOVE              
1 39439U 13066Z   22155.46251208  .00002449  00000+0  28881-3 0  9995
2 39439  97.6368 129.8600 0064877  82.9503 277.9084 14.84112375460120
CUBEBUG-2 (LO-74)       
1 39440U 13066AA  22155.44811655  .00000740  00000+0  10691-3 0  9995
2 39440  97.7254 113.5538 0078888 172.5207 187.7201 14.76970697458363
NEE-02 KRYSAOR          
1 39441U 13066AB  22155.30364944  .00000491  00000+0  75387-4 0  9992
2 39441  97.7364 110.6085 0080364 186.5093 173.5080 14.75717831458097
FUNCUBE-1 (AO-73)       
1 39444U 13066AE  22155.43290398  .00001488  00000+0  18239-3 0  9999
2 39444  97.6236 129.9230 0058440  76.0693 284.7012 14.83365240459599
UWE-3                   
1 39446U 13066AG  22155.42490941  .00000907  00000+0  12311-3 0  9996
2 39446  97.6847 120.0534 0069939 130.8753 229.8548 14.79521438458534
SWARM B                 
1 39451U 13067A   22155.50835303  .00001326  00000+0  59254-4 0  9991
2 39451  87.7517  65.1863 0002852  82.1236 278.0332 15.20438347458961
SWARM A                 
1 39452U 13067B   22155.46696302  .00000941  00000+0  23342-4 0  9992
2 39452  87.3629 229.2195 0003557  96.8738 263.2921 15.38855780479938
SWARM C                 
1 39453U 13067C   22155.52563292  .00003104  00000+0  79759-4 0  9998
2 39453  87.3473 228.6893 0003607  99.0604 261.1059 15.38850165479905
SHIYAN 5 (SY-5)         
1 39455U 13068A   22155.55809691  .00000190  00000+0  70552-4 0  9994
2 39455  98.2164  68.5100 0015711  97.2464 263.0507 14.42032401449185
SES-8                   
1 39460U 13071A   22155.44910524 -.00000260  00000+0  00000+0 0  9995
2 39460   0.0258 261.8042 0002631 173.6596  74.0792  1.00272722 29655
AEROCUBE 5A             
1 39465U 13072D   22155.55083213  .00016418  00000+0  10079-2 0  9990
2 39465 120.4848 264.3626 0197773 264.2959  93.5522 14.95527998147698
AEROCUBE 5B             
1 39466U 13072E   22155.54866815  .00034914  00000+0  13905-2 0  9999
2 39466 120.4618 349.1254 0148104 287.0182  71.4710 15.15451175148778
INMARSAT 5-F1           
1 39476U 13073A   22155.45862074  .00000038  00000+0  00000+0 0  9993
2 39476   0.0182 337.6518 0000235   9.2990 133.6295  1.00268974 30812
TKSAT-1 (TUPAC KATARI)  
1 39481U 13075A   22155.42881505 -.00000185  00000+0  00000+0 0  9992
2 39481   0.0181 153.2306 0002468 259.2615 267.5365  1.00273444 30818
COSMOS 2488             
1 39483U 13076A   22155.53474540  .00000048  00000+0  27614-3 0  9995
2 39483  82.4875   7.0679 0020300  66.5066 293.8150 12.42884794383029
COSMOS 2489             
1 39484U 13076B   22155.50641559  .00000058  00000+0  34272-3 0  9998
2 39484  82.4912   8.0164 0022283  67.1881 293.1571 12.42894333383082
COSMOS 2490             
1 39485U 13076C   22155.48128393  .00000051  00000+0  29671-3 0  9992
2 39485  82.4852   6.7519 0021865  81.9273 278.4292 12.42891679383029
EXPRESS-AM5             
1 39487U 13077A   22154.75657376 -.00000271  00000+0  00000+0 0  9998
2 39487   0.0182 238.7757 0001168  92.3280 333.4744  1.00270536 31560
COSMOS 2493 (SKRL-756 1)
1 39490U 13078A   22155.48396421  .00000915  00000+0  93452-4 0  9997
2 39490  82.4193 246.6109 0018279 136.9872 223.2779 14.89402546457769
COSMOS 2494 (SKRL-756 2)
1 39491U 13078B   22155.53866961  .00000980  00000+0  96517-4 0  9992
2 39491  82.4194 240.3676 0023141 114.9948 245.3678 14.90849940458337
GSAT-14                 
1 39498U 14001A   22155.46088841 -.00000068  00000+0  00000+0 0  9996
2 39498   0.0298 268.5326 0001893   1.8288 222.4717  1.00271146 30622
THAICOM 6               
1 39500U 14002A   22155.46184781 -.00000112  00000+0  00000+0 0  9991
2 39500   0.0629 128.2844 0003361 337.1834  32.1813  1.00272294 30689
TDRS 12                 
1 39504U 14004A   22155.43797295 -.00000262  00000+0  00000+0 0  9990
2 39504   3.8708 347.0797 0005226 114.3087 268.2133  1.00268276 29508
ABS-2                   
1 39508U 14006A   22155.46115007 -.00000077  00000+0  00000+0 0  9998
2 39508   0.0251  22.0350 0004064  24.5868  87.1934  1.00272132 30513
ATHENA-FIDUS            
1 39509U 14006B   22155.23452199  .00000164  00000+0  00000+0 0  9996
2 39509   0.0139 333.6820 0001219  85.6743 315.5254  1.00269226 30299
TURKSAT 4A              
1 39522U 14007A   22155.22896769  .00000156  00000+0  00000+0 0  9997
2 39522   0.0134 271.6620 0000505  93.8369  11.5848  1.00273050 30203
NAVSTAR 69 (USA 248)    
1 39533U 14008A   22155.38052732  .00000035  00000+0  00000+0 0  9997
2 39533  53.6244 209.3906 0059726 208.3064 151.4477  2.00552922 60125
GPM-CORE                
1 39574U 14009C   22155.46722800  .00010396  00000+0  14675-3 0  9990
2 39574  65.0018 232.5103 0011263 270.5432  89.4424 15.56976497469584
EXPRESS-AT1             
1 39612U 14010A   22155.45731247  .00000088  00000+0  00000+0 0  9999
2 39612   0.0121 238.9775 0000187 235.1226 359.4224  1.00273559 30278
EXPRESS-AT2             
1 39613U 14010B   22155.58104751 -.00000272  00000+0  00000+0 0  9994
2 39613   0.0113 239.3075 0000149  23.3534 339.3545  1.00270777 30109
AMAZONAS 4A             
1 39616U 14011A   22155.43143159 -.00000243  00000+0  00000+0 0  9995
2 39616   0.0028  25.9988 0002942  54.3879 253.7568  1.00275460 29924
ASTRA 5B                
1 39617U 14011B   22155.45245118  .00000164  00000+0  00000+0 0  9997
2 39617   0.0438 322.9184 0003467 116.1057   8.2306  1.00273333 29892
COSMOS 2492 [GLONASS-M] 
1 39620U 14012A   22154.90654154 -.00000058  00000+0  00000+0 0  9998
2 39620  65.8413   3.5918 0012792 334.1628  13.4308  2.13103191 63811
SJ-11-06                
1 39624U 14014A   22155.44077903  .00000241  00000+0  60958-4 0  9991
2 39624  98.1345 204.8016 0013083 287.0705  72.9066 14.59139137435747
SENTINEL-1A             
1 39634U 14016A   22155.49336180 -.00000004  00000+0  89683-5 0  9999
2 39634  98.1820 163.2288 0001350  82.5867 277.5493 14.59196931435131
IRNSS-1B                
1 39635U 14017A   22154.88311997  .00000103  00000+0  00000+0 0  9991
2 39635  28.7696 265.3330 0022879 184.2915 175.7610  1.00278045 30014
LUCH 5V                 
1 39727U 14023A   22155.46507488 -.00000259  00000+0  00000+0 0  9990
2 39727   1.4680  75.2401 0003691  29.0303  50.7544  1.00269108 29580
KAZSAT-3                
1 39728U 14023B   22155.45783578  .00000071  00000+0  00000+0 0  9997
2 39728   0.0164  58.6441 0000417 161.3644 256.1967  1.00264773 27675
KAZEOSAT 1              
1 39731U 14024A   22155.51169002  .00000150  00000+0  59145-4 0  9996
2 39731  98.4634 231.1120 0001086  81.1025 279.0287 14.41986149426229
